[{"OBJECT_NAME":"NETSAT-1","OBJECT_ID":"2020-068W","EPOCH":"2026-03-09T22:42:38.711232","MEAN_MOTION":15.32042482,"ECCENTRICITY":0.00057337,"INCLINATION":97.8751,"RA_OF_ASC_NODE":63.2583,"ARG_OF_PERICENTER":18.5877,"MEAN_ANOMALY":341.5572,"EPHEMERIS_TYPE":0,"CLASSIFICATION_TYPE":"U","NORAD_CAT_ID":46506,"ELEMENT_SET_NO":999,"REV_AT_EPOCH":30009,"BSTAR":0.00059222329,"MEAN_MOTION_DOT":0.00018269,"MEAN_MOTION_DDOT":0},{"OBJECT_NAME":"STARLINK-31717","OBJECT_ID":"2024-062M","EPOCH":"2026-03-09T22:01:36.696576","MEAN_MOTION":15.3018144,"ECCENTRICITY":0.00012463,"INCLINATION":53.1585,"RA_OF_ASC_NODE":254.7919,"ARG_OF_PERICENTER":97.0222,"MEAN_ANOMALY":263.0921,"EPHEMERIS_TYPE":0,"CLASSIFICATION_TYPE":"U","NORAD_CAT_ID":59385,"ELEMENT_SET_NO":999,"REV_AT_EPOCH":10969,"BSTAR":-3.1110226e-5,"MEAN_MOTION_DOT":-1.28e-5,"MEAN_MOTION_DDOT":0}]
